NORAD_CAT_ID,OBJECT_NAME,OBJECT_TYPE,EPOCH,MEAN_MOTION,ECCENTRICITY,INCLINATION,RA_OF_ASC_NODE,ARG_OF_PERICENTER,MEAN_ANOMALY,BSTAR,MEAN_MOTION_DOT,MEAN_MOTION_DDOT,TLE_LINE0,TLE_LINE1,TLE_LINE2,SEMIMAJOR_AXIS,PERIOD,APOGEE,PERIGEE,DECAYED
56776.0,STARLINK-6274,PAYLOAD,2023-08-20 17:37:47,15.69924309,0.0003501,69.9989,184.2791,271.7592,88.3203,4.7295e-06,3.56e-06,0.0,0 STARLINK-6274,1 56776U 23078K   23232.73457849  .00000356  00000-0  47295-5 0  9996,2 56776  69.9989 184.2791 0003501 271.7592  88.3203 15.69924309 13092,6737.251,91.724,361.474,356.757,0.0
56776.0,STARLINK-6274,PAYLOAD,2023-08-21 02:48:18,15.69917041,0.0003716,69.9989,183.2041,270.9275,89.1495,1.5163e-06,-3.1e-07,0.0,0 STARLINK-6274,1 56776U 23078K   23233.11688266 -.00000031  00000-0  15163-5 0  9998,2 56776  69.9989 183.2041 0003716 270.9275  89.1495 15.69917041 13150,6737.271,91.725,361.64,356.633,0.0
56776.0,STARLINK-6274,PAYLOAD,2023-08-21 10:27:03,15.69938629,0.0003432,69.9998,182.3083,270.6002,89.4801,6.3635e-05,7.45e-05,0.0,0 STARLINK-6274,1 56776U 23078K   23233.43546000  .00007450  00000-0  63635-4 0  9999,2 56776  69.9998 182.3083 0003432 270.6002  89.4801 15.69938629 13201,6737.21,91.723,361.387,356.762,0.0
56776.0,STARLINK-6274,PAYLOAD,2023-08-21 19:37:34,15.69926001,0.0003562,69.9998,181.2335,274.1261,85.9527,2.9515e-05,3.338e-05,0.0,0 STARLINK-6274,1 56776U 23078K   23233.81776348  .00003338  00000-0  29515-4 0  9991,2 56776  69.9998 181.2335 0003562 274.1261  85.9527 15.69926001 13262,6737.246,91.724,361.511,356.711,0.0
56776.0,STARLINK-6274,PAYLOAD,2023-08-22 09:23:20,15.69947584,0.0003421,69.9998,179.6205,272.6418,87.4386,0.00022304,0.00026718,0.0,0 STARLINK-6274,1 56776U 23078K   23234.39121007  .00026718  00000-0  22304-3 0  9996,2 56776  69.9998 179.6205 0003421 272.6418  87.4386 15.69947584 13359,6737.184,91.723,361.354,356.744,0.0
56776.0,STARLINK-6274,PAYLOAD,2023-08-22 18:33:52,15.69892955,0.0003367,69.9997,178.5458,264.7082,95.373,0.00042598,0.00051255,0.0,0 STARLINK-6274,1 56776U 23078K   23234.77352275  .00051255  00000-0  42598-3 0  9992,2 56776  69.9997 178.5458 0003367 264.7082  95.3730 15.69892955 13413,6737.34,91.726,361.474,356.937,0.0
56776.0,STARLINK-6274,PAYLOAD,2023-08-22 23:09:07,15.69919755,0.0003339,69.9995,178.0084,262.7658,97.3158,0.00058583,0.00070812,0.0,0 STARLINK-6274,1 56776U 23078K   23234.96467435  .00070812  00000-0  58583-3 0  9999,2 56776  69.9995 178.0084 0003339 262.7658  97.3158 15.69919755 13444,6737.264,91.724,361.378,356.879,0.0
56776.0,STARLINK-6274,PAYLOAD,2023-08-24 19:29:55,15.69936349,0.0003711,69.9994,172.8145,253.7615,106.3172,0.00018383,0.00021962,0.0,0 STARLINK-6274,1 56776U 23078K   23236.81244863  .00021962  00000-0  18383-3 0  9999,2 56776  69.9994 172.8145 0003711 253.7615 106.3172 15.69936349 13737,6737.216,91.723,361.581,356.581,0.0
56776.0,STARLINK-6274,PAYLOAD,2023-08-25 04:40:26,15.69947323,0.000353,69.9994,171.7387,255.4736,104.6068,0.00037047,0.00044615,0.0,0 STARLINK-6274,1 56776U 23078K   23237.19475006  .00044615  00000-0  37047-3 0  9994,2 56776  69.9994 171.7387 0003530 255.4736 104.6068 15.69947323 13532,6737.185,91.723,361.428,356.671,0.0
56776.0,STARLINK-6274,PAYLOAD,2023-08-25 13:50:56,15.69946467,0.0003173,69.9994,170.666,244.1171,115.9697,0.00024025,0.000288,0.0,0 STARLINK-6274,1 56776U 23078K   23237.57704840  .00028800  00000-0  24025-3 0  9997,2 56776  69.9994 170.6660 0003173 244.1171 115.9697 15.69946467 13851,6737.187,91.723,361.19,356.914,0.0
56776.0,STARLINK-6274,PAYLOAD,2023-08-25 19:57:57,15.69926867,0.0003647,69.999,169.9477,259.9621,100.1164,0.00019581,0.00023401,0.0,0 STARLINK-6274,1 56776U 23078K   23237.83191812  .00023401  00000-0  19581-3 0  9998,2 56776  69.9990 169.9477 0003647 259.9621 100.1164 15.69926867 13637,6737.243,91.724,361.565,356.651,0.0
56776.0,STARLINK-6274,PAYLOAD,2023-08-25 23:01:27,15.69933077,0.0003584,69.999,169.5895,259.3587,100.7205,0.00010288,0.00012181,0.0,0 STARLINK-6274,1 56776U 23078K   23237.95935104  .00012181  00000-0  10288-3 0  9999,2 56776  69.9990 169.5895 0003584 259.3587 100.7205 15.69933077 13916,6737.225,91.724,361.505,356.676,0.0
56776.0,STARLINK-6274,PAYLOAD,2023-08-26 12:00:00,15.6992694,0.0003607,69.9992,168.069,268.6026,266.2188,-0.00017295,-0.0002096,0.0,0 STARLINK-6274,1 56776U 23078K   23238.50001157 -.00020960  00000-0 -17295-3 0  9994,2 56776  69.9992 168.0690 0003607 268.6026 266.2188 15.69926940 13999,6737.243,91.724,361.538,356.678,0.0
56776.0,STARLINK-6274,PAYLOAD,2023-08-26 14:00:01,15.69904558,0.0003615,69.9993,167.8347,266.945,18.7163,0.00021894,0.00026175,0.0,0 STARLINK-6274,1 56776U 23078K   23238.58334491  .00026175  00000-0  21894-3 0  9994,2 56776  69.9993 167.8347 0003615 266.9450  18.7163 15.69904558  6016,6737.307,91.725,361.608,356.737,0.0
56776.0,STARLINK-6274,PAYLOAD,2023-08-26 20:25:59,15.69933014,0.0003591,69.9993,167.0816,263.9518,96.1269,6.9987e-05,8.214e-05,0.0,0 STARLINK-6274,1 56776U 23078K   23238.85138347  .00008214  00000-0  69987-4 0  9996,2 56776  69.9993 167.0816 0003591 263.9518  96.1269 15.69933014 13793,6737.226,91.724,361.51,356.671,0.0
56776.0,STARLINK-6274,PAYLOAD,2023-08-26 21:57:44,15.69939328,0.0003589,69.9995,166.9008,265.2347,94.8439,9.8593e-05,0.00011666,0.0,0 STARLINK-6274,1 56776U 23078K   23238.91509781  .00011666  00000-0  98593-4 0  9997,2 56776  69.9995 166.9008 0003589 265.2347  94.8439 15.69939328 14067,6737.208,91.723,361.491,356.655,0.0
56776.0,STARLINK-6274,PAYLOAD,2023-08-27 04:04:45,15.69911638,0.0003755,69.9982,166.1847,278.9103,81.1668,-3.7411e-05,-4.707e-05,0.0,0 STARLINK-6274,1 56776U 23078K   23239.16996878 -.00004707  00000-0 -37411-4 0  9994,2 56776  69.9982 166.1847 0003755 278.9103  81.1668 15.69911638 14104,6737.287,91.725,361.682,356.622,0.0
56776.0,STARLINK-6274,PAYLOAD,2023-08-27 13:15:15,15.69927059,0.0004644,69.9987,165.1088,273.8457,86.2208,2.241e-05,2.483e-05,0.0,0 STARLINK-6274,1 56776U 23078K   23239.55226847  .00002483  00000-0  22410-4 0  9999,2 56776  69.9987 165.1088 0004644 273.8457  86.2208 15.69927059 14165,6737.243,91.724,362.236,355.979,0.0
56776.0,STARLINK-6274,PAYLOAD,2023-08-27 20:54:01,15.69934513,0.000376,69.999,164.2147,270.2096,89.8669,4.1184e-05,4.744e-05,0.0,0 STARLINK-6274,1 56776U 23078K   23239.87084917  .00004744  00000-0  41184-4 0  9995,2 56776  69.9990 164.2147 0003760 270.2096  89.8669 15.69934513 13952,6737.221,91.724,361.62,356.553,0.0
56776.0,STARLINK-6274,PAYLOAD,2023-08-28 21:22:03,15.69929816,0.0003644,69.9993,161.3497,274.1078,85.9701,3.5075e-05,4.008e-05,0.0,0 STARLINK-6274,1 56776U 23078K   23240.89031999  .00004008  00000-0  35075-4 0  9996,2 56776  69.9993 161.3497 0003644 274.1078  85.9701 15.69929816 14118,6737.235,91.724,361.555,356.645,0.0
56776.0,STARLINK-6274,PAYLOAD,2023-08-28 22:53:48,15.69922706,0.000367,70.0004,161.1711,271.5214,88.5562,1.8214e-05,1.978e-05,0.0,0 STARLINK-6274,1 56776U 23078K   23240.95403805  .00001978  00000-0  18214-4 0  9991,2 56776  70.0004 161.1711 0003670 271.5214  88.5562 15.69922706 14387,6737.255,91.724,361.593,356.648,0.0
56776.0,STARLINK-6274,PAYLOAD,2023-08-29 05:00:49,15.69924678,0.0003648,70.0011,160.4526,270.5752,89.5026,2.7986e-05,3.154e-05,0.0,0 STARLINK-6274,1 56776U 23078K   23241.20890504  .00003154  00000-0  27986-4 0  9990,2 56776  70.0011 160.4526 0003648 270.5752  89.5026 15.69924678 14164,6737.249,91.724,361.572,356.657,0.0
56776.0,STARLINK-6274,PAYLOAD,2023-08-29 23:21:51,15.69921761,0.000347,70.0015,158.3028,274.1594,85.9205,5.8646e-05,6.844e-05,0.0,0 STARLINK-6274,1 56776U 23078K   23241.97351047  .00006844  00000-0  58646-4 0  9994,2 56776  70.0015 158.3028 0003470 274.1594  85.9205 15.69921761 14549,6737.258,91.724,361.461,356.785,0.0
56776.0,STARLINK-6274,PAYLOAD,2023-08-30 03:57:05,15.69932417,0.0003588,69.9999,157.7651,263.9367,96.1419,2.3802e-05,2.651e-05,0.0,0 STARLINK-6274,1 56776U 23078K   23242.16465208  .00002651  00000-0  23802-4 0  9999,2 56776  69.9999 157.7651 0003588 263.9367  96.1419 15.69932417 14570,6737.227,91.724,361.51,356.675,0.0
56776.0,STARLINK-6274,PAYLOAD,2023-08-30 11:35:52,15.69921222,0.000325,69.9988,156.8717,271.2773,88.805,1.4252e-05,1.501e-05,0.0,0 STARLINK-6274,1 56776U 23078K   23242.48324227  .00001501  00000-0  14252-4 0  9991,2 56776  69.9988 156.8717 0003250 271.2773  88.8050 15.69921222 14627,6737.259,91.724,361.314,356.935,0.0
56776.0,STARLINK-6274,PAYLOAD,2023-08-30 22:18:07,15.69929276,0.0003872,69.9987,155.6183,264.4119,95.6635,2.6301e-05,2.951e-05,0.0,0 STARLINK-6274,1 56776U 23078K   23242.92925422  .00002951  00000-0  26301-4 0  9992,2 56776  69.9987 155.6183 0003872 264.4119  95.6635 15.69929276 14697,6737.236,91.724,361.71,356.493,0.0
56776.0,STARLINK-6274,PAYLOAD,2023-08-31 22:46:09,15.69929137,0.0004266,69.9983,152.7538,261.2335,98.8378,1.101e-05,1.111e-05,0.0,0 STARLINK-6274,1 56776U 23078K   23243.94871857  .00001111  00000-0  11010-4 0  9995,2 56776  69.9983 152.7538 0004266 261.2335  98.8378 15.69929137 14851,6737.237,91.724,361.976,356.228,0.0
56776.0,STARLINK-6274,PAYLOAD,2023-09-01 11:00:10,15.69927793,0.0003981,69.9975,151.3203,263.5223,96.5519,8.295e-06,7.85e-06,0.0,0 STARLINK-6274,1 56776U 23078K   23244.45845415  .00000785  00000-0  82950-5 0  9991,2 56776  69.9975 151.3203 0003981 263.5223  96.5519 15.69927793 14678,6737.241,91.724,361.788,356.423,0.0
56776.0,STARLINK-6274,PAYLOAD,2023-09-01 21:42:26,15.69926319,0.000371,69.9965,150.0661,262.6054,97.472,1.0585e-05,1.06e-05,0.0,0 STARLINK-6274,1 56776U 23078K   23244.90447309  .00001060  00000-0  10585-4 0  9992,2 56776  69.9965 150.0661 0003710 262.6054  97.4720 15.69926319 15008,6737.245,91.724,361.609,356.61,0.0
56776.0,STARLINK-6274,PAYLOAD,2023-09-02 05:21:12,15.6992482,0.0003408,69.999,149.1675,270.5185,89.562,8.606e-06,8.22e-06,0.0,0 STARLINK-6274,1 56776U 23078K   23245.22305916  .00000822  00000-0  86060-5 0  9992,2 56776  69.9990 149.1675 0003408 270.5185  89.5620 15.69924820 14798,6737.249,91.724,361.41,356.818,0.0
